{
  "type": "FeatureCollection",
  "features": [
    {
      "type": "Feature",
      "properties": {
        "norad_id": 61183,
        "name": "GSAT0226 (GALILEO 31)",
        "group": "gnss",
        "lat": 51.88999536910003,
        "lon": -71.58828434141434,
        "alt_km": 23213.20806586739,
        "timestamp": "2025-12-24T09:46:31.247809+00:00",
        "meta_object_name": "GSAT0226 (GALILEO 31)",
        "meta_object_id": "2024-167B",
        "meta_epoch": "2025-12-23T09:50:40.022880",
        "meta_mean_motion": 1.70473667,
        "meta_eccentricity": 0.00012164,
        "meta_inclination": 55.2365,
        "meta_ra_of_asc_node": 226.1435,
        "meta_arg_of_pericenter": 108.5259,
        "meta_mean_anomaly": 72.9218,
        "meta_ephemeris_type": 0,
        "meta_classification_type": "U",
        "meta_norad_cat_id": 61183,
        "meta_element_set_no": 999,
        "meta_rev_at_epoch": 785,
        "meta_bstar": 0,
        "meta_mean_motion_dot": 7.3e-07,
        "meta_mean_motion_ddot": 0,
        "tle_line1": "1 61183U 24167B   25357.41018545  .00000073  00000+0  00000+0 0  9997",
        "tle_line2": "2 61183  55.2365 226.1435 0001216 108.5259  72.9218  1.70473667  7850"
      },
      "geometry": {
        "type": "Point",
        "coordinates": [
          -71.58828434141434,
          51.88999536910003
        ]
      }
    },
    {
      "type": "Feature",
      "properties": {
        "norad_id": 61186,
        "name": "BEIDOU-3 M25 (C47)",
        "group": "gnss",
        "lat": -2.1554740292673293,
        "lon": -53.23195731674319,
        "alt_km": 21520.50808417911,
        "timestamp": "2025-12-24T09:46:31.247820+00:00",
        "meta_object_name": "BEIDOU-3 M25 (C47)",
        "meta_object_id": "2024-168B",
        "meta_epoch": "2025-12-24T01:04:04.997856",
        "meta_mean_motion": 1.86230087,
        "meta_eccentricity": 0.0005428,
        "meta_inclination": 54.6321,
        "meta_ra_of_asc_node": 308.3293,
        "meta_arg_of_pericenter": 299.9145,
        "meta_mean_anomaly": 174.1551,
        "meta_ephemeris_type": 0,
        "meta_classification_type": "U",
        "meta_norad_cat_id": 61186,
        "meta_element_set_no": 999,
        "meta_rev_at_epoch": 852,
        "meta_bstar": 0,
        "meta_mean_motion_dot": -5.3e-07,
        "meta_mean_motion_ddot": 0,
        "tle_line1": "1 61186U 24168B   25358.04450229 -.00000053  00000+0  00000+0 0  9999",
        "tle_line2": "2 61186  54.6321 308.3293 0005428 299.9145 174.1551  1.86230087  8525"
      },
      "geometry": {
        "type": "Point",
        "coordinates": [
          -53.23195731674319,
          -2.1554740292673293
        ]
      }
    },
    {
      "type": "Feature",
      "properties": {
        "norad_id": 61187,
        "name": "BEIDOU-3 M27 (C49)",
        "group": "gnss",
        "lat": 37.09184109625317,
        "lon": 95.83313245651306,
        "alt_km": 21529.867086710452,
        "timestamp": "2025-12-24T09:46:31.247834+00:00",
        "meta_object_name": "BEIDOU-3 M27 (C49)",
        "meta_object_id": "2024-168C",
        "meta_epoch": "2025-12-23T10:00:54.789120",
        "meta_mean_motion": 1.86230279,
        "meta_eccentricity": 0.00025534,
        "meta_inclination": 54.6281,
        "meta_ra_of_asc_node": 308.3346,
        "meta_arg_of_pericenter": 340.8055,
        "meta_mean_anomaly": 207.7074,
        "meta_ephemeris_type": 0,
        "meta_classification_type": "U",
        "meta_norad_cat_id": 61187,
        "meta_element_set_no": 999,
        "meta_rev_at_epoch": 598,
        "meta_bstar": 0,
        "meta_mean_motion_dot": -5.4e-07,
        "meta_mean_motion_ddot": 0,
        "tle_line1": "1 61187U 24168C   25357.41730080 -.00000054  00000+0  00000+0 0  9997",
        "tle_line2": "2 61187  54.6281 308.3346 0002553 340.8055 207.7074  1.86230279  5985"
      },
      "geometry": {
        "type": "Point",
        "coordinates": [
          95.83313245651306,
          37.09184109625317
        ]
      }
    },
    {
      "type": "Feature",
      "properties": {
        "norad_id": 62339,
        "name": "GPS BIII-7  (PRN 01)",
        "group": "gnss",
        "lat": 35.68690229924765,
        "lon": 11.560004028954285,
        "alt_km": 20160.093109939746,
        "timestamp": "2025-12-24T09:46:31.247845+00:00",
        "meta_object_name": "GPS BIII-7  (PRN 01)",
        "meta_object_id": "2024-242A",
        "meta_epoch": "2025-12-22T12:02:33.556992",
        "meta_mean_motion": 2.00568132,
        "meta_eccentricity": 0.00128077,
        "meta_inclination": 54.9208,
        "meta_ra_of_asc_node": 341.3454,
        "meta_arg_of_pericenter": 346.2078,
        "meta_mean_anomaly": 123.2241,
        "meta_ephemeris_type": 0,
        "meta_classification_type": "U",
        "meta_norad_cat_id": 62339,
        "meta_element_set_no": 999,
        "meta_rev_at_epoch": 771,
        "meta_bstar": 0,
        "meta_mean_motion_dot": -6.9e-07,
        "meta_mean_motion_ddot": 0,
        "tle_line1": "1 62339U 24242A   25356.50177728 -.00000069  00000+0  00000+0 0  9999",
        "tle_line2": "2 62339  54.9208 341.3454 0012807 346.2078 123.2241  2.00568132  7712"
      },
      "geometry": {
        "type": "Point",
        "coordinates": [
          11.560004028954285,
          35.68690229924765
        ]
      }
    },
    {
      "type": "Feature",
      "properties": {
        "norad_id": 62850,
        "name": "NVS-02 (IRNSS-1K)",
        "group": "gnss",
        "lat": -18.674569247507822,
        "lon": -154.66370943427273,
        "alt_km": 25641.227106170823,
        "timestamp": "2025-12-24T09:46:31.247859+00:00",
        "meta_object_name": "NVS-02 (IRNSS-1K)",
        "meta_object_id": "2025-020A",
        "meta_epoch": "2025-12-23T02:48:28.612512",
        "meta_mean_motion": 2.17602057,
        "meta_eccentricity": 0.73473509,
        "meta_inclination": 20.9588,
        "meta_ra_of_asc_node": 323.9017,
        "meta_arg_of_pericenter": 32.9618,
        "meta_mean_anomaly": 356.3768,
        "meta_ephemeris_type": 0,
        "meta_classification_type": "U",
        "meta_norad_cat_id": 62850,
        "meta_element_set_no": 999,
        "meta_rev_at_epoch": 714,
        "meta_bstar": 0.00026724694,
        "meta_mean_motion_dot": 1.47e-06,
        "meta_mean_motion_ddot": 0,
        "tle_line1": "1 62850U 25020A   25357.11699783  .00000147  00000+0  26725-3 0  9992",
        "tle_line2": "2 62850  20.9588 323.9017 7347350  32.9618 356.3768  2.17602057  7148"
      },
      "geometry": {
        "type": "Point",
        "coordinates": [
          -154.66370943427273,
          -18.674569247507822
        ]
      }
    },
    {
      "type": "Feature",
      "properties": {
        "norad_id": 62876,
        "name": "QZS-6 (QZSS/PRN 200)",
        "group": "gnss",
        "lat": -0.06806299150288746,
        "lon": -29.63590169794874,
        "alt_km": 35781.93371571726,
        "timestamp": "2025-12-24T09:46:31.247871+00:00",
        "meta_object_name": "QZS-6 (QZSS/PRN 200)",
        "meta_object_id": "2025-023A",
        "meta_epoch": "2025-12-23T22:07:22.775232",
        "meta_mean_motion": 1.00271041,
        "meta_eccentricity": 0.00016025,
        "meta_inclination": 0.0563,
        "meta_ra_of_asc_node": 73.1036,
        "meta_arg_of_pericenter": 207.8125,
        "meta_mean_anomaly": 234.1779,
        "meta_ephemeris_type": 0,
        "meta_classification_type": "U",
        "meta_norad_cat_id": 62876,
        "meta_element_set_no": 999,
        "meta_rev_at_epoch": 320,
        "meta_bstar": 0,
        "meta_mean_motion_dot": -2.12e-06,
        "meta_mean_motion_ddot": 0,
        "tle_line1": "1 62876U 25023A   25357.92179138 -.00000212  00000+0  00000+0 0  9997",
        "tle_line2": "2 62876   0.0563  73.1036 0001602 207.8125 234.1779  1.00271041  3203"
      },
      "geometry": {
        "type": "Point",
        "coordinates": [
          -29.63590169794874,
          -0.06806299150288746
        ]
      }
    },
    {
      "type": "Feature",
      "properties": {
        "norad_id": 63130,
        "name": "COSMOS 2584 (704K)",
        "group": "gnss",
        "lat": -44.1383318844845,
        "lon": -74.33685959827093,
        "alt_km": 19115.63819667464,
        "timestamp": "2025-12-24T09:46:31.247882+00:00",
        "meta_object_name": "COSMOS 2584 (704K)",
        "meta_object_id": "2025-042A",
        "meta_epoch": "2025-12-23T15:18:41.586912",
        "meta_mean_motion": 2.13102998,
        "meta_eccentricity": 0.00077597,
        "meta_inclination": 64.9817,
        "meta_ra_of_asc_node": 78.7748,
        "meta_arg_of_pericenter": 220.3621,
        "meta_mean_anomaly": 139.628,
        "meta_ephemeris_type": 0,
        "meta_classification_type": "U",
        "meta_norad_cat_id": 63130,
        "meta_element_set_no": 999,
        "meta_rev_at_epoch": 630,
        "meta_bstar": 0,
        "meta_mean_motion_dot": 1e-08,
        "meta_mean_motion_ddot": 0,
        "tle_line1": "1 63130U 25042A   25357.63798133  .00000001  00000+0  00000+0 0  9997",
        "tle_line2": "2 63130  64.9817  78.7748 0007759 220.3621 139.6280  2.13102998  6308"
      },
      "geometry": {
        "type": "Point",
        "coordinates": [
          -74.33685959827093,
          -44.1383318844845
        ]
      }
    }
  ]
}